$$SOE
2461288.500000000, A.D. 2026-Sep-05 00:00:00.0000, 1.353708684304565E+08, -4.086793471761702E+08, 6.624337726152909E+07,
2461295.500000000, A.D. 2026-Sep-12 00:00:00.0000, 1.450401144965528E+08, -4.040099928765978E+08, 6.667227340048790E+07,
2461302.500000000, A.D. 2026-Sep-19 00:00:00.0000, 1.546234823384098E+08, -3.991014229965440E+08, 6.706168613725953E+07,
2461309.500000000, A.D. 2026-Sep-26 00:00:00.0000, 1.641145495653629E+08, -3.939546206513600E+08, 6.741106145695089E+07,
2461316.500000000, A.D. 2026-Oct-03 00:00:00.0000, 1.735068534107248E+08, -3.885707506775433E+08, 6.771986404197429E+07,
2461323.500000000, A.D. 2026-Oct-10 00:00:00.0000, 1.827938959002741E+08, -3.829511639447334E+08, 6.798757839461580E+07,
2461330.500000000, A.D. 2026-Oct-17 00:00:00.0000, 1.919691493067022E+08, -3.770974016312639E+08, 6.821370997648381E+07,
2461337.500000000, A.D. 2026-Oct-24 00:00:00.0000, 2.010260619170505E+08, -3.710111994646667E+08, 6.839778635818994E+07,
2461344.500000000, A.D. 2026-Oct-31 00:00:00.0000, 2.099580642142646E+08, -3.646944919715052E+08, 6.853935836196485E+07,
2461351.500000000, A.D. 2026-Nov-07 00:00:00.0000, 2.187585758138382E+08, -3.581494166401047E+08, 6.863800116962208E+07,
2461358.500000000, A.D. 2026-Nov-14 00:00:00.0000, 2.274210133569348E+08, -3.513783170869299E+08, 6.869331544772002E+07,
2461365.500000000, A.D. 2026-Nov-21 00:00:00.0000, 2.359387975461975E+08, -3.443837445225388E+08, 6.870492870924850E+07,
2461372.500000000, A.D. 2026-Nov-28 00:00:00.0000, 2.443053583214861E+08, -3.371684605007113E+08, 6.867249675397459E+07,
2461379.500000000, A.D. 2026-Dec-05 00:00:00.0000, 2.525141417896078E+08, -3.297354415809294E+08, 6.859570479777589E+07,
2461386.500000000, A.D. 2026-Dec-12 00:00:00.0000, 2.605586190669882E+08, -3.220878827680585E+08, 6.847426852649076E+07,
2461393.500000000, A.D. 2026-Dec-19 00:00:00.0000, 2.684322951398671E+08, -3.142291996983717E+08, 6.830793524436516E+07,
2461400.500000000, A.D. 2026-Dec-26 00:00:00.0000, 2.761287175889356E+08, -3.061630304151630E+08, 6.809648505524740E+07,
2461407.500000000, A.D. 2027-Jan-02 00:00:00.0000, 2.836414854412185E+08, -2.978932368999574E+08, 6.783973203131506E+07,
2461414.500000000, A.D. 2027-Jan-09 00:00:00.0000, 2.909642582506256E+08, -2.894239063145344E+08, 6.753752535569631E+07,
2461421.500000000, A.D. 2027-Jan-16 00:00:00.0000, 2.980907654241252E+08, -2.807593519207957E+08, 6.718975043159699E+07,
2461428.500000000, A.D. 2027-Jan-23 00:00:00.0000, 3.050148158181395E+08, -2.719041136941532E+08, 6.679632994512045E+07,
2461435.500000000, A.D. 2027-Jan-30 00:00:00.0000, 3.117303077691202E+08, -2.628629586541829E+08, 6.635722485487803E+07,
2461442.500000000, A.D. 2027-Feb-06 00:00:00.0000, 3.182312399582500E+08, -2.536408805492755E+08, 6.587243529170716E+07,
2461449.500000000, A.D. 2027-Feb-13 00:00:00.0000, 3.245117226241745E+08, -2.442430976552566E+08, 6.534200150563718E+07,
2461456.500000000, A.D. 2027-Feb-20 00:00:00.0000, 3.305659867308525E+08, -2.346750494613820E+08, 6.476600500728185E+07,
2461463.500000000, A.D. 2027-Feb-27 00:00:00.0000, 3.363883924533104E+08, -2.249423954394266E+08, 6.414456950669704E+07,
2461470.500000000, A.D. 2027-Mar-06 00:00:00.0000, 3.419734399653327E+08, -2.150510139552353E+08, 6.347786152357084E+07,
2461477.500000000, A.D. 2027-Mar-13 00:00:00.0000, 3.473157808949484E+08, -2.050069992583663E+08, 6.276609097749230E+07,
2461484.500000000, A.D. 2027-Mar-20 00:00:00.0000, 3.524102292827573E+08, -1.948166573727556E+08, 6.200951178850091E+07,
2461491.500000000, A.D. 2027-Mar-27 00:00:00.0000, 3.572517722076198E+08, -1.844865014280054E+08, 6.120842241940329E+07,
2461498.500000000, A.D. 2027-Apr-03 00:00:00.0000, 3.618355802437209E+08, -1.740232464722537E+08, 6.036316633244824E+07,
2461505.500000000, A.D. 2027-Apr-10 00:00:00.0000, 3.661570177703033E+08, -1.634338037398582E+08, 5.947413235210891E+07,
2461512.500000000, A.D. 2027-Apr-17 00:00:00.0000, 3.702116531150923E+08, -1.527252743881186E+08, 5.854175492661140E+07,
2461519.500000000, A.D. 2027-Apr-24 00:00:00.0000, 3.739952685677690E+08, -1.419049427689229E+08, 5.756651427170844E+07,
2461526.500000000, A.D. 2027-May-01 00:00:00.0000, 3.775038705177325E+08, -1.309802692140544E+08, 5.654893636688632E+07,
2461533.500000000, A.D. 2027-May-08 00:00:00.0000, 3.807336999772472E+08, -1.199588815938091E+08, 5.548959283241019E+07,
2461540.500000000, A.D. 2027-May-15 00:00:00.0000, 3.836812419490796E+08, -1.088485647068243E+08, 5.438910089910892E+07,
2461547.500000000, A.D. 2027-May-22 00:00:00.0000, 3.863432320313569E+08, -9.765725010900411E+07, 5.324812339976051E+07,
2461554.500000000, A.D. 2027-May-29 00:00:00.0000, 3.887166635708759E+08, -8.639300786769977E+07, 5.206736835132287E+07,
2461561.500000000, A.D. 2027-Jun-05 00:00:00.0000, 3.907987962085482E+08, -7.506403712933388E+07, 5.084758830155269E+07,
2461568.500000000, A.D. 2027-Jun-12 00:00:00.0000, 3.925871637728582E+08, -6.367865509474687E+07, 4.958957966018626E+07,
2461575.500000000, A.D. 2027-Jun-19 00:00:00.0000, 3.940795811548186E+08, -5.224528536914516E+07, 4.829418196986490E+07,
2461582.500000000, A.D. 2027-Jun-26 00:00:00.0000, 3.952741504084204E+08, -4.077244598341893E+07, 4.696227707090778E+07,
2461589.500000000, A.D. 2027-Jul-03 00:00:00.0000, 3.961692661743442E+08, -2.926873711635544E+07, 4.559478814966682E+07,
2461596.500000000, A.D. 2027-Jul-10 00:00:00.0000, 3.967636204317360E+08, -1.774282854894426E+07, 4.419267866945314E+07,
2461603.500000000, A.D. 2027-Jul-17 00:00:00.0000, 3.970562065856205E+08, -6.203446931902871E+06, 4.275695117991368E+07,
2461610.500000000, A.D. 2027-Jul-24 00:00:00.0000, 3.970463230209277E+08, 5.340637025679555E+06, 4.128864598839052E+07,
2461617.500000000, A.D. 2027-Jul-31 00:00:00.0000, 3.967335765111032E+08, 1.688062163458502E+07, 3.978883967798538E+07,
2461624.500000000, A.D. 2027-Aug-07 00:00:00.0000, 3.961178852596850E+08, 2.840768867509900E+07, 3.825864358868727E+07,
2461631.500000000, A.D. 2027-Aug-14 00:00:00.0000, 3.951994792613535E+08, 3.991301891732447E+07, 3.669920245777839E+07,
2461638.500000000, A.D. 2027-Aug-21 00:00:00.0000, 3.939788985948039E+08, 5.138780529544955E+07, 3.511169289427847E+07,
2461645.500000000, A.D. 2027-Aug-28 00:00:00.0000, 3.924569930713427E+08, 6.282326488498738E+07, 3.349732147636496E+07,
2461652.500000000, A.D. 2027-Sep-04 00:00:00.0000, 3.906349220542502E+08, 7.421065213341488E+07, 3.185732279050948E+07,
2461659.500000000, A.D. 2027-Sep-11 00:00:00.0000, 3.885141530565592E+08, 8.554127263116537E+07, 3.019295749319043E+07,
2461666.500000000, A.D. 2027-Sep-18 00:00:00.0000, 3.860964592581891E+08, 9.680649672068748E+07, 2.850551033709741E+07,
2461673.500000000, A.D. 2027-Sep-25 00:00:00.0000, 3.833839161828269E+08, 1.079977728142867E+08, 2.679628814191083E+07,
2461680.500000000, A.D. 2027-Oct-02 00:00:00.0000, 3.803788976247360E+08, 1.191066403977042E+08, 2.506661771260369E+07,
2461687.500000000, A.D. 2027-Oct-09 00:00:00.0000, 3.770840708665735E+08, 1.301247426659238E+08, 2.331784371059075E+07,
2461694.500000000, A.D. 2027-Oct-16 00:00:00.0000, 3.735023912735893E+08, 1.410438386895443E+08, 2.155132647541472E+07,
2461701.500000000, A.D. 2027-Oct-23 00:00:00.0000, 3.696370965500671E+08, 1.518558150615803E+08, 1.976843978079280E+07,
2461708.500000000, A.D. 2027-Oct-30 00:00:00.0000, 3.654917010610030E+08, 1.625526975923537E+08, 1.797056854851604E+07,
2461715.500000000, A.D. 2027-Nov-06 00:00:00.0000, 3.610699890842880E+08, 1.731266641423010E+08, 1.615910672726937E+07,
2461722.500000000, A.D. 2027-Nov-13 00:00:00.0000, 3.563760050441058E+08, 1.835700564857138E+08, 1.433545535816990E+07,
2461729.500000000, A.D. 2027-Nov-20 00:00:00.0000, 3.514140436720768E+08, 1.938753889889898E+08, 1.250102039125645E+07,
2461736.500000000, A.D. 2027-Nov-27 00:00:00.0000, 3.461886417555325E+08, 2.040353570365791E+08, 1.065721035454075E+07,
2461743.500000000, A.D. 2027-Dec-04 00:00:00.0000, 3.407045694906722E+08, 2.140428460925077E+08, 8.805434143573701E+06,
2461750.500000000, A.D. 2027-Dec-11 00:00:00.0000, 3.349668209343253E+08, 2.238909404119838E+08, 6.947098910830304E+06,
2461757.500000000, A.D. 2027-Dec-18 00:00:00.0000, 3.289806038749162E+08, 2.335729310459389E+08, 5.083608009123430E+06,
2461764.500000000, A.D. 2027-Dec-25 00:00:00.0000, 3.227513293206632E+08, 2.430823231220725E+08, 3.216358981603488E+06,
2461771.500000000, A.D. 2028-Jan-01 00:00:00.0000, 3.162846006928110E+08, 2.524128424066237E+08, 1.346741601961151E+06,
$$EOE